[
  {
    "norad_id": "32788",
    "name": "AAUSAT-2",
    "tle1": "1 32788U 08021F   25114.46015960  .00372436  00000+0  22434-2 0  9994\r",
    "tle2": "2 32788  97.5983 110.9578 0009210 130.7573 229.4493 15.76611273926212",
    "transmitters": [
      {
        "description": "Mode U 1k2 AFSK TLM",
        "mode": "AFSK",
        "status": "active",
        "uplink": null,
        "downlink": 437425000
      }
    ],
    "image": "https://db-satnogs.freetls.fastly.net/media/satellites/AAUSAT-2.jpg",
    "country": "DK"
  },
  {
    "norad_id": "22825",
    "name": "AO-27",
    "tle1": "1 22825U 93061C   25115.39187154  .00000241  00000+0  10924-3 0  9995\r",
    "tle2": "2 22825  98.7403 176.7142 0007420 241.4146 118.6290 14.30780926647256",
    "transmitters": [
      {
        "description": "Mode V/U FM",
        "mode": "FM",
        "status": "active",
        "uplink": 145850000,
        "downlink": 436795000
      },
      {
        "description": "Mode U AFSK Beacon",
        "mode": "AFSK",
        "status": "active",
        "uplink": null,
        "downlink": 436795000
      },
      {
        "description": "Mode S",
        "mode": "FM",
        "status": "active",
        "uplink": null,
        "downlink": 2218000000
      },
      {
        "description": "Mode U - GMSK9k6",
        "mode": "GMSK",
        "status": "active",
        "uplink": null,
        "downlink": 436797000
      }
    ],
    "image": "satellites/AO-27-PreFlight.jpg",
    "country": "US"
  },
  {
    "norad_id": "39444",
    "name": "AO-73",
    "tle1": "1 39444U 13066AE  25115.57830895  .00012479  00000+0  94996-3 0  9991\r",
    "tle2": "2 39444  97.7740  77.3545 0041170 176.8932 183.2556 15.01552030616836",
    "transmitters": [
      {
        "description": "Mode U/V Linear",
        "mode": "USB",
        "status": "active",
        "uplink": "435130000-435150000",
        "downlink": "145950000-145970000"
      },
      {
        "description": "CW Beacon",
        "mode": "CW",
        "status": "active",
        "uplink": null,
        "downlink": 145815000
      },
      {
        "description": "BPSK Telemetry",
        "mode": "BPSK",
        "status": "active",
        "uplink": null,
        "downlink": 145935000
      }
    ],
    "image": "https://db-satnogs.freetls.fastly.net/media/satellites/FUNCUBE-1.jpg",
    "country": "GB"
  },
  {
    "norad_id": "43017",
    "name": "AO-91",
    "tle1": "1 43017U 17073E   25115.16301881  .00014418  00000+0  75124-3 0  9994\r",
    "tle2": "2 43017  97.5334 347.0912 0173469 321.9638  36.9441 15.03930130402385",
    "transmitters": [
      {
        "description": "DUV TLM",
        "mode": "DUV",
        "status": "active",
        "uplink": null,
        "downlink": 145960000
      },
      {
        "description": "Mode U/V FM Voice CTCSS 67.0Hz",
        "mode": "FM",
        "status": "active",
        "uplink": 435250000,
        "downlink": 145960000
      }
    ],
    "image": "https://db-satnogs.freetls.fastly.net/media/satellites/RadFxSat_Flight-300x300.jpg",
    "country": "US"
  },
  {
    "norad_id": "61781",
    "name": "AO-123",
    "tle1": "1 61781U 24199AY  25115.85371667  .00011774  00000+0  43632-3 0  9995\r",
    "tle2": "2 61781  97.3618 344.1702 0015969   3.1711 356.9626 15.27666074 70056",
    "transmitters": [
      {
        "description": "Image download",
        "mode": "QPSK",
        "status": "active",
        "uplink": null,
        "downlink": 10460000000
      },
      {
        "description": "Mode V/U - FM Transceiver",
        "mode": "FM",
        "status": "active",
        "uplink": 145850000,
        "downlink": 435400000
      },
      {
        "description": "Mode U - Telemetry",
        "mode": "BPSK",
        "status": "active",
        "uplink": null,
        "downlink": 435400000
      },
      {
        "description": "Mode U - SSDV",
        "mode": "BPSK",
        "status": "active",
        "uplink": null,
        "downlink": 436210000
      }
    ],
    "image": "satellites/300px-阿斯图友谊号_IPvWmAo.jpg",
    "country": "CN,RU"
  },
  {
    "norad_id": "57175",
    "name": "BSUSat-2",
    "tle1": "1 57175U 23091K   25115.83764944  .00017436  00000+0  85008-3 0  9993\r",
    "tle2": "2 57175  97.5626 172.3491 0013945 135.1057 225.1307 15.18302600100763",
    "transmitters": [
      {
        "description": "Mode U 9k6 FSK AX.25",
        "mode": "FSK",
        "status": "active",
        "uplink": null,
        "downlink": 436990000
      },
      {
        "description": "Mode S - Transmitter",
        "mode": "FM",
        "status": "active",
        "uplink": null,
        "downlink": 2425000000
      }
    ],
    "image": "satellites/CUBEBEL-2-resize.jpg",
    "country": "BY"
  },
  {
    "norad_id": "41847",
    "name": "CAS-2T",
    "tle1": "1 41847U 16066G   25115.48460989  .00001384  00000+0  20720-3 0  9994\r",
    "tle2": "2 41847  98.4214 190.3352 0345688 315.0825  42.2864 14.43361356444515",
    "transmitters": [
      {
        "description": "FM Transponder",
        "mode": "FMN",
        "status": "active",
        "uplink": 145925000,
        "downlink": 435615000
      },
      {
        "description": "CW Telemetry",
        "mode": "CW",
        "status": "active",
        "uplink": null,
        "downlink": 435710000
      }
    ],
    "image": "satellites/cas-2t-145-435-mhz-fm-transponder-cubesat.jpg",
    "country": "CN"
  },
  {
    "norad_id": "40908",
    "name": "CAS-3H",
    "tle1": "1 40908U 15049K   25115.85813893  .00019286  00000+0  52134-3 0  9992\r",
    "tle2": "2 40908  97.5094 135.1530 0008000 331.6891  28.3917 15.37741606531351",
    "transmitters": [
      {
        "description": "CW Beacon",
        "mode": "CW",
        "status": "active",
        "uplink": null,
        "downlink": 437200000
      },
      {
        "description": "FM Transponder",
        "mode": "FM",
        "status": "active",
        "uplink": 144350000,
        "downlink": 437200000
      },
      {
        "description": "APRS Digipeater",
        "mode": "AFSK",
        "status": "active",
        "uplink": 144390000,
        "downlink": 144390000
      },
      {
        "description": "GFSK Telemetry",
        "mode": "GFSK",
        "status": "active",
        "uplink": null,
        "downlink": 437225000
      },
      {
        "description": "BPSK Telemetry",
        "mode": "BPSK",
        "status": "active",
        "uplink": null,
        "downlink": 437200000
      }
    ],
    "image": "https://db-satnogs.freetls.fastly.net/media/satellites/LILACSAT-2.jpg",
    "country": "CN"
  },
  {
    "norad_id": "44881",
    "name": "CAS-6",
    "tle1": "1 44881U 19093C   25115.83534445  .00002002  00000+0  23771-3 0  9993\r",
    "tle2": "2 44881  97.7935 192.4205 0014270  24.5248 335.6643 14.85491807289432",
    "transmitters": [
      {
        "description": "Mode V CW TLM",
        "mode": "CW",
        "status": "active",
        "uplink": null,
        "downlink": 145910000
      },
      {
        "description": "Mode V GMSK4k8 AX.25 TLM",
        "mode": "GMSK",
        "status": "active",
        "uplink": null,
        "downlink": 145890000
      },
      {
        "description": "Mode U/V Linear Transponder",
        "mode": "USB",
        "status": "active",
        "uplink": "435270000-435290000",
        "downlink": "145915000-145935000"
      },
      {
        "description": "Transmitter 401.545-401.555",
        "mode": "FM",
        "status": "active",
        "uplink": null,
        "downlink": 401550000
      },
      {
        "description": "S-band telemetry",
        "mode": "FM",
        "status": "active",
        "uplink": null,
        "downlink": 2278328000
      }
    ],
    "image": "",
    "country": "CN"
  },
  {
    "norad_id": "50466",
    "name": "CAS-9",
    "tle1": "1 50466U 21131B   25115.89830118  .00001046  00000+0  34101-3 0  9993\r",
    "tle2": "2 50466  98.5084 205.4764 0002959 266.5667  93.5183 14.40748104175014",
    "transmitters": [
      {
        "description": "Mode U - Telemetry",
        "mode": "CW",
        "status": "active",
        "uplink": null,
        "downlink": 435575000
      },
      {
        "description": "Mode U - GMSK4k8 AX.25 Telemetry",
        "mode": "GMSK",
        "status": "active",
        "uplink": null,
        "downlink": 435725000
      },
      {
        "description": "Mode V/U - Transponder",
        "mode": "USB",
        "status": "active",
        "uplink": "145855000-145885000",
        "downlink": "435165000-435195000"
      },
      {
        "description": "Mode U Audio",
        "mode": "BPSK",
        "status": "active",
        "uplink": null,
        "downlink": 435180000
      }
    ],
    "image": "satellites/cas9.png",
    "country": "CN"
  },
  {
    "norad_id": "60246",
    "name": "CatSat",
    "tle1": "1 60246U 24125J   25115.16795212  .00013382  00000+0  46057-3 0  9990\r",
    "tle2": "2 60246  97.2642 327.0449 0041838 255.1331 104.5274 15.29321504 43049",
    "transmitters": [
      {
        "description": "Mode U - FSK2k4",
        "mode": "FSK AX.100 Mode 5",
        "status": "active",
        "uplink": null,
        "downlink": 437185000
      },
      {
        "description": "Mode U - FSK38k4",
        "mode": "FSK AX.100 Mode 5",
        "status": "inactive",
        "uplink": null,
        "downlink": 437185000
      },
      {
        "description": "Mode U - FSK9k6",
        "mode": "FSK AX.100 Mode 5",
        "status": "inactive",
        "uplink": null,
        "downlink": 437185000
      },
      {
        "description": "Mode U - GMSK4k8 - Transmitter Frequency after Reset",
        "mode": "FSK AX.100 Mode 5",
        "status": "inactive",
        "uplink": null,
        "downlink": 437250000
      }
    ],
    "image": "",
    "country": "US"
  }
]